0 DELTA 1 DEB
1 21460U 75052EU  13282.97036061  .00000016  00000-0  12510-3 0  4310
2 21460 099.6679 068.0820 0084994 319.2941 153.3522 13.27708368 86963
0 DELTA 1 DEB
1 21460U 75052EU  13285.36912809  .00000006  00000-0  10184-3 0  4324
2 21460 099.6683 070.3215 0084998 313.5098 098.9146 13.27708913 87284
0 DELTA 1 DEB
1 21460U 75052EU  13287.40586623  .00000031  00000-0  15781-3 0  4339
2 21460 099.6688 072.2230 0084975 308.5959 114.0664 13.27709243 87554
0 DELTA 1 DEB
1 21460U 75052EU  13289.97859199  .00000035  00000-0  16610-3 0  4341
2 21460 099.6694 074.6249 0084980 302.3914 171.1186 13.27709723 87899
0 DELTA 1 DEB
1 21460U 75052EU  13292.85349972  .00000076  00000-0  25519-3 0  4359
2 21460 099.6696 077.3094 0085024 295.4684 232.5305 13.27710240 88279
0 DELTA 1 DEB
1 21460U 75052EU  13295.39173534  .00000109  00000-0  32634-3 0  4364
2 21460 099.6695 079.6796 0085068 289.3643 124.7222 13.27710842 88613
